[{"OBJECT_NAME":"OBJECT N","OBJECT_ID":"2025-155N","EPOCH":"2026-03-09T22:27:42.648192","MEAN_MOTION":15.35502024,"ECCENTRICITY":0.00088608,"INCLINATION":97.4405,"RA_OF_ASC_NODE":38.3729,"ARG_OF_PERICENTER":136.1354,"MEAN_ANOMALY":224.0595,"EPHEMERIS_TYPE":0,"CLASSIFICATION_TYPE":"U","NORAD_CAT_ID":64888,"ELEMENT_SET_NO":999,"REV_AT_EPOCH":6567,"BSTAR":0.00095623277,"MEAN_MOTION_DOT":0.00033051,"MEAN_MOTION_DDOT":0},{"OBJECT_NAME":"STARLINK-36260","OBJECT_ID":"2026-026M","EPOCH":"2026-03-09T22:00:01.999584","MEAN_MOTION":15.48166474,"ECCENTRICITY":0.00019852,"INCLINATION":97.2852,"RA_OF_ASC_NODE":123.4975,"ARG_OF_PERICENTER":71.8406,"MEAN_ANOMALY":121.4123,"EPHEMERIS_TYPE":0,"CLASSIFICATION_TYPE":"U","NORAD_CAT_ID":67732,"ELEMENT_SET_NO":999,"REV_AT_EPOCH":535,"BSTAR":-0.040776079,"MEAN_MOTION_DOT":-0.01921424,"MEAN_MOTION_DDOT":0}]
